IDEFIX & ARIANE 42P R/B 
1 27422U 02021B   26047.93928108  .00000312  00000+0  13513-3 0  9992
2 27422  98.5851 346.7962 0010664 247.3581 112.6475 14.31010953241054
AQUA                    
1 27424U 02022A   26048.15749034  .00001199  00000+0  24931-3 0  9999
2 27424  98.4137  15.1547 0001207  47.9989  42.6552 14.61925170265735
CZ-4B R/B               
1 27432U 02024C   26048.12864949  .00000055  00000+0  51120-4 0  9991
2 27432  98.8887 101.6344 0051191  81.7732 304.3366 14.14543799226330
MIDORI II (ADEOS-II)    
1 27597U 02056A   26047.87215796  .00000341  00000+0  15193-3 0  9996
2 27597  98.7733   6.2110 0002152  71.1020 289.0395 14.29269414207322
H-2A R/B                
1 27601U 02056E   26047.91170409  .00000319  00000+0  12646-3 0  9993
2 27601  98.3165   9.0733 0069254 222.8397 203.3921 14.33746136211137
CZ-4B R/B               
1 28059U 03049C   26047.95935889  .00000530  00000+0  13319-3 0  9992
2 28059  98.6857  42.0546 0047111 295.7214  63.9122 14.54998018183581
CZ-2C R/B               
1 28222U 04012C   26048.06093691  .00056674  00000+0  64220-3 0  9991
2 28222  97.7283 111.4359 0015152  30.0420 330.1703 15.62085417201055
SL-16 R/B               
1 28353U 04021B   26048.09181255  .00000344  00000+0  20368-3 0  9991
2 28353  70.9989 275.7212 0003222  59.4851 300.6589 14.14594858119924
CZ-4B R/B               
1 28415U 04035C   26048.09603183  .00009466  00000+0  33647-3 0  9992
2 28415  97.3529  82.5885 0033518  44.3625 316.0291 15.28673871176764
CZ-2C R/B               
1 28480U 04046B   26048.15103162  .00000117  00000+0  58869-4 0  9993
2 28480  98.1995 324.4113 0138634 215.2316 143.9642 14.26984727105575
ARIANE 5 R/B            
1 28499U 04049H   26048.01767719  .00000999  00000+0  11620-3 0  9996
2 28499  98.2592 215.7059 0085274  58.5930 302.3589 14.85225016142724
CZ-2D R/B               
1 28738U 05024B   26047.97914127  .00041285  00000+0  54439-3 0  9995
2 28738  97.3607  62.3961 0007673  96.2799 263.9331 15.58272770136555
