CCSDS_OMM_VERS = 2.0
CREATION_DATE  = 
ORIGINATOR     = 

OBJECT_NAME    = IDEFIX & ARIANE 42P R/B
OBJECT_ID      = 2002-021B
CENTER_NAME    = EARTH
REF_FRAME      = TEME
TIME_SYSTEM    = UTC
MEAN_ELEMENT_THEORY = SGP/SGP4

EPOCH          = 2026-02-16T22:32:33.885312
MEAN_MOTION    = 14.31010953
ECCENTRICITY   = .0010664
INCLINATION    = 98.5851
RA_OF_ASC_NODE = 346.7962
ARG_OF_PERICENTER = 247.3581
MEAN_ANOMALY   = 112.6475

EPHEMERIS_TYPE = 0
CLASSIFICATION_TYPE = U
NORAD_CAT_ID   = 27422
ELEMENT_SET_NO = 999
REV_AT_EPOCH   = 24105
BSTAR          = .13513E-3
MEAN_MOTION_DOT = .312E-5
MEAN_MOTION_DDOT = 0

CCSDS_OMM_VERS = 2.0
CREATION_DATE  = 
ORIGINATOR     = 

OBJECT_NAME    = AQUA
OBJECT_ID      = 2002-022A
CENTER_NAME    = EARTH
REF_FRAME      = TEME
TIME_SYSTEM    = UTC
MEAN_ELEMENT_THEORY = SGP/SGP4

EPOCH          = 2026-02-17T03:46:47.165376
MEAN_MOTION    = 14.61925170
ECCENTRICITY   = .0001207
INCLINATION    = 98.4137
RA_OF_ASC_NODE = 15.1547
ARG_OF_PERICENTER = 47.9989
MEAN_ANOMALY   = 42.6552

EPHEMERIS_TYPE = 0
CLASSIFICATION_TYPE = U
NORAD_CAT_ID   = 27424
ELEMENT_SET_NO = 999
REV_AT_EPOCH   = 26573
BSTAR          = .24931E-3
MEAN_MOTION_DOT = .1199E-4
MEAN_MOTION_DDOT = 0

CCSDS_OMM_VERS = 2.0
CREATION_DATE  = 
ORIGINATOR     = 

OBJECT_NAME    = CZ-4B R/B
OBJECT_ID      = 2002-024C
CENTER_NAME    = EARTH
REF_FRAME      = TEME
TIME_SYSTEM    = UTC
MEAN_ELEMENT_THEORY = SGP/SGP4

EPOCH          = 2026-02-17T03:05:15.315936
MEAN_MOTION    = 14.14543799
ECCENTRICITY   = .0051191
INCLINATION    = 98.8887
RA_OF_ASC_NODE = 101.6344
ARG_OF_PERICENTER = 81.7732
MEAN_ANOMALY   = 304.3366

EPHEMERIS_TYPE = 0
CLASSIFICATION_TYPE = U
NORAD_CAT_ID   = 27432
ELEMENT_SET_NO = 999
REV_AT_EPOCH   = 22633
BSTAR          = .5112E-4
MEAN_MOTION_DOT = .55E-6
MEAN_MOTION_DDOT = 0

CCSDS_OMM_VERS = 2.0
CREATION_DATE  = 
ORIGINATOR     = 

OBJECT_NAME    = MIDORI II (ADEOS-II)
OBJECT_ID      = 2002-056A
CENTER_NAME    = EARTH
REF_FRAME      = TEME
TIME_SYSTEM    = UTC
MEAN_ELEMENT_THEORY = SGP/SGP4

EPOCH          = 2026-02-16T20:55:54.447744
MEAN_MOTION    = 14.29269414
ECCENTRICITY   = .0002152
INCLINATION    = 98.7733
RA_OF_ASC_NODE = 6.2110
ARG_OF_PERICENTER = 71.1020
MEAN_ANOMALY   = 289.0395

EPHEMERIS_TYPE = 0
CLASSIFICATION_TYPE = U
NORAD_CAT_ID   = 27597
ELEMENT_SET_NO = 999
REV_AT_EPOCH   = 20732
BSTAR          = .15193E-3
MEAN_MOTION_DOT = .341E-5
MEAN_MOTION_DDOT = 0

CCSDS_OMM_VERS = 2.0
CREATION_DATE  = 
ORIGINATOR     = 

OBJECT_NAME    = H-2A R/B
OBJECT_ID      = 2002-056E
CENTER_NAME    = EARTH
REF_FRAME      = TEME
TIME_SYSTEM    = UTC
MEAN_ELEMENT_THEORY = SGP/SGP4

EPOCH          = 2026-02-16T21:52:51.233376
MEAN_MOTION    = 14.33746136
ECCENTRICITY   = .0069254
INCLINATION    = 98.3165
RA_OF_ASC_NODE = 9.0733
ARG_OF_PERICENTER = 222.8397
MEAN_ANOMALY   = 203.3921

EPHEMERIS_TYPE = 0
CLASSIFICATION_TYPE = U
NORAD_CAT_ID   = 27601
ELEMENT_SET_NO = 999
REV_AT_EPOCH   = 21113
BSTAR          = .12646E-3
MEAN_MOTION_DOT = .319E-5
MEAN_MOTION_DDOT = 0

CCSDS_OMM_VERS = 2.0
CREATION_DATE  = 
ORIGINATOR     = 

OBJECT_NAME    = CZ-4B R/B
OBJECT_ID      = 2003-049C
CENTER_NAME    = EARTH
REF_FRAME      = TEME
TIME_SYSTEM    = UTC
MEAN_ELEMENT_THEORY = SGP/SGP4

EPOCH          = 2026-02-16T23:01:28.608096
MEAN_MOTION    = 14.54998018
ECCENTRICITY   = .0047111
INCLINATION    = 98.6857
RA_OF_ASC_NODE = 42.0546
ARG_OF_PERICENTER = 295.7214
MEAN_ANOMALY   = 63.9122

EPHEMERIS_TYPE = 0
CLASSIFICATION_TYPE = U
NORAD_CAT_ID   = 28059
ELEMENT_SET_NO = 999
REV_AT_EPOCH   = 18358
BSTAR          = .13319E-3
MEAN_MOTION_DOT = .53E-5
MEAN_MOTION_DDOT = 0

CCSDS_OMM_VERS = 2.0
CREATION_DATE  = 
ORIGINATOR     = 

OBJECT_NAME    = CZ-2C R/B
OBJECT_ID      = 2004-012C
CENTER_NAME    = EARTH
REF_FRAME      = TEME
TIME_SYSTEM    = UTC
MEAN_ELEMENT_THEORY = SGP/SGP4

EPOCH          = 2026-02-17T01:27:44.949024
MEAN_MOTION    = 15.62085417
ECCENTRICITY   = .0015152
INCLINATION    = 97.7283
RA_OF_ASC_NODE = 111.4359
ARG_OF_PERICENTER = 30.0420
MEAN_ANOMALY   = 330.1703

EPHEMERIS_TYPE = 0
CLASSIFICATION_TYPE = U
NORAD_CAT_ID   = 28222
ELEMENT_SET_NO = 999
REV_AT_EPOCH   = 20105
BSTAR          = .6422E-3
MEAN_MOTION_DOT = .56674E-3
MEAN_MOTION_DDOT = 0

CCSDS_OMM_VERS = 2.0
CREATION_DATE  = 
ORIGINATOR     = 

OBJECT_NAME    = SL-16 R/B
OBJECT_ID      = 2004-021B
CENTER_NAME    = EARTH
REF_FRAME      = TEME
TIME_SYSTEM    = UTC
MEAN_ELEMENT_THEORY = SGP/SGP4

EPOCH          = 2026-02-17T02:12:12.604320
MEAN_MOTION    = 14.14594858
ECCENTRICITY   = .0003222
INCLINATION    = 70.9989
RA_OF_ASC_NODE = 275.7212
ARG_OF_PERICENTER = 59.4851
MEAN_ANOMALY   = 300.6589

EPHEMERIS_TYPE = 0
CLASSIFICATION_TYPE = U
NORAD_CAT_ID   = 28353
ELEMENT_SET_NO = 999
REV_AT_EPOCH   = 11992
BSTAR          = .20368E-3
MEAN_MOTION_DOT = .344E-5
MEAN_MOTION_DDOT = 0

CCSDS_OMM_VERS = 2.0
CREATION_DATE  = 
ORIGINATOR     = 

OBJECT_NAME    = CZ-4B R/B
OBJECT_ID      = 2004-035C
CENTER_NAME    = EARTH
REF_FRAME      = TEME
TIME_SYSTEM    = UTC
MEAN_ELEMENT_THEORY = SGP/SGP4

EPOCH          = 2026-02-17T02:18:17.150112
MEAN_MOTION    = 15.28673871
ECCENTRICITY   = .0033518
INCLINATION    = 97.3529
RA_OF_ASC_NODE = 82.5885
ARG_OF_PERICENTER = 44.3625
MEAN_ANOMALY   = 316.0291

EPHEMERIS_TYPE = 0
CLASSIFICATION_TYPE = U
NORAD_CAT_ID   = 28415
ELEMENT_SET_NO = 999
REV_AT_EPOCH   = 17676
BSTAR          = .33647E-3
MEAN_MOTION_DOT = .9466E-4
MEAN_MOTION_DDOT = 0

CCSDS_OMM_VERS = 2.0
CREATION_DATE  = 
ORIGINATOR     = 

OBJECT_NAME    = CZ-2C R/B
OBJECT_ID      = 2004-046B
CENTER_NAME    = EARTH
REF_FRAME      = TEME
TIME_SYSTEM    = UTC
MEAN_ELEMENT_THEORY = SGP/SGP4

EPOCH          = 2026-02-17T03:37:29.131968
MEAN_MOTION    = 14.26984727
ECCENTRICITY   = .0138634
INCLINATION    = 98.1995
RA_OF_ASC_NODE = 324.4113
ARG_OF_PERICENTER = 215.2316
MEAN_ANOMALY   = 143.9642

EPHEMERIS_TYPE = 0
CLASSIFICATION_TYPE = U
NORAD_CAT_ID   = 28480
ELEMENT_SET_NO = 999
REV_AT_EPOCH   = 10557
BSTAR          = .58869E-4
MEAN_MOTION_DOT = .117E-5
MEAN_MOTION_DDOT = 0

CCSDS_OMM_VERS = 2.0
CREATION_DATE  = 
ORIGINATOR     = 

OBJECT_NAME    = ARIANE 5 R/B
OBJECT_ID      = 2004-049H
CENTER_NAME    = EARTH
REF_FRAME      = TEME
TIME_SYSTEM    = UTC
MEAN_ELEMENT_THEORY = SGP/SGP4

EPOCH          = 2026-02-17T00:25:27.309216
MEAN_MOTION    = 14.85225016
ECCENTRICITY   = .0085274
INCLINATION    = 98.2592
RA_OF_ASC_NODE = 215.7059
ARG_OF_PERICENTER = 58.5930
MEAN_ANOMALY   = 302.3589

EPHEMERIS_TYPE = 0
CLASSIFICATION_TYPE = U
NORAD_CAT_ID   = 28499
ELEMENT_SET_NO = 999
REV_AT_EPOCH   = 14272
BSTAR          = .1162E-3
MEAN_MOTION_DOT = .999E-5
MEAN_MOTION_DDOT = 0

CCSDS_OMM_VERS = 2.0
CREATION_DATE  = 
ORIGINATOR     = 

OBJECT_NAME    = CZ-2D R/B
OBJECT_ID      = 2005-024B
CENTER_NAME    = EARTH
REF_FRAME      = TEME
TIME_SYSTEM    = UTC
MEAN_ELEMENT_THEORY = SGP/SGP4

EPOCH          = 2026-02-16T23:29:57.805728
MEAN_MOTION    = 15.58272770
ECCENTRICITY   = .0007673
INCLINATION    = 97.3607
RA_OF_ASC_NODE = 62.3961
ARG_OF_PERICENTER = 96.2799
MEAN_ANOMALY   = 263.9331

EPHEMERIS_TYPE = 0
CLASSIFICATION_TYPE = U
NORAD_CAT_ID   = 28738
ELEMENT_SET_NO = 999
REV_AT_EPOCH   = 13655
BSTAR          = .54439E-3
MEAN_MOTION_DOT = .41285E-3
MEAN_MOTION_DDOT = 0

